NORAD_CAT_ID,OBJECT_NAME,OBJECT_TYPE,EPOCH,MEAN_MOTION,ECCENTRICITY,INCLINATION,RA_OF_ASC_NODE,ARG_OF_PERICENTER,MEAN_ANOMALY,BSTAR,MEAN_MOTION_DOT,MEAN_MOTION_DDOT,TLE_LINE0,TLE_LINE1,TLE_LINE2,SEMIMAJOR_AXIS,PERIOD,APOGEE,PERIGEE,DECAYED
56483.0,STARLINK-5868,PAYLOAD,2023-06-20 14:52:46,15.69927191,0.0003489,69.9983,130.3142,261.8185,98.2615,1.7638e-05,1.909e-05,0.0,0 STARLINK-5868,1 56483U 23064AM  23171.61998364  .00001909  00000-0  17638-4 0  9999,2 56483  69.9983 130.3142 0003489 261.8185  98.2615 15.69927191  6794,6737.242,91.724,361.458,356.757,0.0
56483.0,STARLINK-5868,PAYLOAD,2023-06-20 20:59:47,15.69923098,0.0003213,70.0006,129.5983,263.1457,96.9373,1.0834e-05,1.09e-05,0.0,0 STARLINK-5868,1 56483U 23064AM  23171.87485317  .00001090  00000-0  10834-4 0  9998,2 56483  70.0006 129.5983 0003213 263.1457  96.9373 15.69923098  6482,6737.254,91.724,361.284,356.954,0.0
56483.0,STARLINK-5868,PAYLOAD,2023-06-21 07:42:02,15.69931659,0.0003693,69.9986,128.3456,272.9793,87.098,2.0513e-05,2.255e-05,0.0,0 STARLINK-5868,1 56483U 23064AM  23172.32086621  .00002255  00000-0  20513-4 0  9993,2 56483  69.9986 128.3456 0003693 272.9793  87.0980 15.69931659  6556,6737.23,91.724,361.583,356.606,0.0
56483.0,STARLINK-5868,PAYLOAD,2023-06-22 00:31:18,15.69937882,0.0003921,69.9991,126.3745,271.4636,88.6111,2.8218e-05,3.183e-05,0.0,0 STARLINK-5868,1 56483U 23064AM  23173.02174368  .00003183  00000-0  28218-4 0  9998,2 56483  69.9991 126.3745 0003921 271.4636  88.6111 15.69937882  7014,6737.212,91.723,361.718,356.435,0.0
56483.0,STARLINK-5868,PAYLOAD,2023-06-22 06:38:20,15.6991596,0.0003404,69.9989,125.6565,267.0921,92.9885,-1.9878e-05,-2.601e-05,0.0,0 STARLINK-5868,1 56483U 23064AM  23173.27662044 -.00002601  00000-0 -19878-4 0  9996,2 56483  69.9989 125.6565 0003404 267.0921  92.9885 15.69915960  7050,6737.274,91.725,361.433,356.846,0.0
56483.0,STARLINK-5868,PAYLOAD,2023-06-22 23:27:35,15.69943406,0.0003121,70.0006,123.6873,258.6745,101.41,5.2384e-05,6.095e-05,0.0,0 STARLINK-5868,1 56483U 23064AM  23173.97749076  .00006095  00000-0  52384-4 0  9992,2 56483  70.0006 123.6873 0003121 258.6745 101.4100 15.69943406  7163,6737.196,91.723,361.164,356.958,0.0
56483.0,STARLINK-5868,PAYLOAD,2023-06-23 05:34:36,15.69921621,0.0003227,70.0006,122.9714,267.9462,92.1364,4.1976e-06,2.92e-06,0.0,0 STARLINK-5868,1 56483U 23064AM  23174.23236733  .00000292  00000-0  41976-5 0  9992,2 56483  70.0006 122.9714 0003227 267.9462  92.1364 15.69921621  7203,6737.258,91.724,361.297,356.949,0.0
56483.0,STARLINK-5868,PAYLOAD,2023-06-24 06:02:38,15.69923492,0.0003487,69.9993,120.1014,268.3991,91.6806,2.6986e-05,3.033e-05,0.0,0 STARLINK-5868,1 56483U 23064AM  23175.25183957  .00003033  00000-0  26986-4 0  9993,2 56483  69.9993 120.1014 0003487 268.3991  91.6806 15.69923492  7368,6737.253,91.724,361.467,356.769,0.0
56483.0,STARLINK-5868,PAYLOAD,2023-06-25 06:30:41,15.69916797,0.0003594,69.9993,117.2365,265.4515,94.627,-5.5051e-06,-8.75e-06,0.0,0 STARLINK-5868,1 56483U 23064AM  23176.27130886 -.00000875  00000-0 -55051-5 0  9998,2 56483  69.9993 117.2365 0003594 265.4515  94.6270 15.69916797  7529,6737.272,91.725,361.558,356.716,0.0
56483.0,STARLINK-5868,PAYLOAD,2023-06-26 05:26:57,15.69926737,0.0003595,69.9989,114.5491,270.2549,89.8234,1.638e-05,1.757e-05,0.0,0 STARLINK-5868,1 56483U 23064AM  23177.22705799  .00001757  00000-0  16380-4 0  9994,2 56483  69.9989 114.5491 0003595 270.2549  89.8234 15.69926737  7673,6737.244,91.724,361.531,356.687,0.0
56483.0,STARLINK-5868,PAYLOAD,2023-06-27 05:55:00,15.69915006,0.0003385,69.9994,111.6845,274.4297,85.6512,-1.6653e-05,-2.214e-05,0.0,0 STARLINK-5868,1 56483U 23064AM  23178.24652867 -.00002214  00000-0 -16653-4 0  9998,2 56483  69.9994 111.6845 0003385 274.4297  85.6512 15.69915006  7831,6737.277,91.725,361.423,356.862,0.0
56483.0,STARLINK-5868,PAYLOAD,2023-06-28 04:51:17,15.69928787,0.000308,70.0001,108.9967,264.329,95.7554,4.5648e-05,5.28e-05,0.0,0 STARLINK-5868,1 56483U 23064AM  23179.20228108  .00005280  00000-0  45648-4 0  9992,2 56483  70.0001 108.9967 0003080 264.3290  95.7554 15.69928787  7984,6737.238,91.724,361.178,357.028,0.0
56483.0,STARLINK-5868,PAYLOAD,2023-06-29 05:19:19,15.6991396,0.0003156,69.9994,106.1305,268.3429,91.7405,-1.8409e-05,-2.424e-05,0.0,0 STARLINK-5868,1 56483U 23064AM  23180.22175120 -.00002424  00000-0 -18409-4 0  9995,2 56483  69.9994 106.1305 0003156 268.3429  91.7405 15.69913960  8147,6737.28,91.725,361.271,357.019,0.0
56483.0,STARLINK-5868,PAYLOAD,2023-06-30 21:04:51,15.69925554,0.0003723,70.0001,101.4708,272.0313,88.0456,1.322e-05,1.377e-05,0.0,0 STARLINK-5868,1 56483U 23064AM  23181.87837957  .00001377  00000-0  13220-4 0  9990,2 56483  70.0001 101.4708 0003723 272.0313  88.0456 15.69925554  8404,6737.247,91.724,361.62,356.604,0.0
56483.0,STARLINK-5868,PAYLOAD,2023-07-02 02:08:09,15.69924839,0.000347,69.9992,98.0687,270.9999,89.0799,1.5535e-05,1.656e-05,0.0,0 STARLINK-5868,1 56483U 23064AM  23183.08899854  .00001656  00000-0  15535-4 0  9990,2 56483  69.9992  98.0687 0003470 270.9999  89.0799 15.69924839  8599,6737.249,91.724,361.452,356.776,0.0
56483.0,STARLINK-5868,PAYLOAD,2023-07-03 02:36:10,15.6993551,0.0003482,69.9992,95.2025,270.9884,89.0913,9.7618e-06,9.62e-06,0.0,0 STARLINK-5868,1 56483U 23064AM  23184.10846018  .00000962  00000-0  97618-5 0  9990,2 56483  69.9992  95.2025 0003482 270.9884  89.0913 15.69935510  8754,6737.219,91.724,361.429,356.738,0.0
56483.0,STARLINK-5868,PAYLOAD,2023-07-03 11:46:42,15.69920281,0.0003348,69.9991,94.1278,271.1058,88.9754,6.0569e-06,5.15e-06,0.0,0 STARLINK-5868,1 56483U 23064AM  23184.49076932  .00000515  00000-0  60569-5 0  9991,2 56483  69.9991  94.1278 0003348 271.1058  88.9754 15.69920281  8815,6737.262,91.724,361.383,356.871,0.0
56483.0,STARLINK-5868,PAYLOAD,2023-07-05 00:28:45,15.69927097,0.0003613,69.9987,89.8279,268.1063,91.9719,8.6131e-06,8.23e-06,0.0,0 STARLINK-5868,1 56483U 23064AM  23186.01996771  .00000823  00000-0  86131-5 0  9998,2 56483  69.9987  89.8279 0003613 268.1063  91.9719 15.69927097  9053,6737.243,91.724,361.542,356.673,0.0
56483.0,STARLINK-5868,PAYLOAD,2023-07-06 02:28:32,15.69930219,0.0003625,69.9973,86.7827,267.1077,92.9704,1.5197e-05,1.615e-05,0.0,0 STARLINK-5868,1 56483U 23064AM  23187.10315120  .00001615  00000-0  15197-4 0  9995,2 56483  69.9973  86.7827 0003625 267.1077  92.9704 15.69930219  9224,6737.234,91.724,361.541,356.656,0.0
56483.0,STARLINK-5868,PAYLOAD,2023-07-07 02:56:34,15.69929,0.0003391,69.9975,83.9162,268.305,91.7757,1.6834e-05,1.812e-05,0.0,0 STARLINK-5868,1 56483U 23064AM  23188.12261916  .00001812  00000-0  16834-4 0  9999,2 56483  69.9975  83.9162 0003391 268.3050  91.7757 15.69929000  9389,6737.237,91.724,361.387,356.818,0.0
56483.0,STARLINK-5868,PAYLOAD,2023-07-07 18:14:04,15.69976697,0.0002952,69.9981,82.1244,276.4065,83.6795,-0.00010232,-0.00012523,0.0,0 STARLINK-5868,1 56483U 23064AM  23188.75977361 -.00012523  00000-0 -10232-3 0  9994,2 56483  69.9981  82.1244 0002952 276.4065  83.6795 15.69976697  9483,6737.101,91.721,360.954,356.977,0.0
56483.0,STARLINK-5868,PAYLOAD,2023-07-07 19:45:50,15.69928085,0.0003058,69.9985,81.945,269.5761,90.5084,4.0725e-06,2.77e-06,0.0,0 STARLINK-5868,1 56483U 23064AM  23188.82350636  .00000277  00000-0  40725-5 0  9995,2 56483  69.9985  81.9450 0003058 269.5761  90.5084 15.69928085  9494,6737.24,91.724,361.165,357.044,0.0
56483.0,STARLINK-5868,PAYLOAD,2023-07-08 03:24:37,15.69917972,0.0003301,69.9977,81.0495,264.613,95.4689,-2.6239e-06,-5.28e-06,0.0,0 STARLINK-5868,1 56483U 23064AM  23189.14209618 -.00000528  00000-0 -26239-5 0  9999,2 56483  69.9977  81.0495 0003301 264.6130  95.4689 15.69917972  9546,6737.269,91.725,361.358,356.91,0.0
56483.0,STARLINK-5868,PAYLOAD,2023-07-08 20:13:54,15.69909051,0.0003291,69.9981,79.0787,273.3615,86.7204,-7.4555e-06,-1.108e-05,0.0,0 STARLINK-5868,1 56483U 23064AM  23189.84298777 -.00001108  00000-0 -74555-5 0  9999,2 56483  69.9981  79.0787 0003291 273.3615  86.7204 15.69909051  9652,6737.294,91.725,361.376,356.942,0.0
56483.0,STARLINK-5868,PAYLOAD,2023-07-09 02:20:54,15.699187,0.0003037,69.9984,78.3628,266.161,93.9238,5.7248e-06,4.76e-06,0.0,0 STARLINK-5868,1 56483U 23064AM  23190.09784939  .00000476  00000-0  57248-5 0  9993,2 56483  69.9984  78.3628 0003037 266.1610  93.9238 15.69918700  9696,6737.267,91.724,361.178,357.085,0.0
56483.0,STARLINK-5868,PAYLOAD,2023-07-09 09:59:38,15.69930083,0.0003679,69.9966,77.4677,265.4222,94.6554,2.5348e-05,2.837e-05,0.0,0 STARLINK-5868,1 56483U 23064AM  23190.41642016  .00002837  00000-0  25348-4 0  9996,2 56483  69.9966  77.4677 0003679 265.4222  94.6554 15.69930083  9746,6737.234,91.724,361.578,356.62,0.0
56483.0,STARLINK-5868,PAYLOAD,2023-07-09 19:10:10,15.69926007,0.0003257,69.9982,76.393,256.5394,103.5439,8.6276e-07,-1.09e-06,0.0,0 STARLINK-5868,1 56483U 23064AM  23190.79872850 -.00000109  00000-0  86276-6 0  9998,2 56483  69.9982  76.3930 0003257 256.5394 103.5439 15.69926007  9807,6737.246,91.724,361.305,356.916,0.0
56483.0,STARLINK-5868,PAYLOAD,2023-07-10 02:48:55,15.69934241,0.0003136,69.9974,75.4959,260.2696,99.8145,7.811e-06,7.27e-06,0.0,0 STARLINK-5868,1 56483U 23064AM  23191.11730480  .00000727  00000-0  78110-5 0  9999,2 56483  69.9974  75.4959 0003136 260.2696  99.8145 15.69934241  9857,6737.222,91.724,361.2,356.974,0.0
56483.0,STARLINK-5868,PAYLOAD,2023-07-11 01:45:12,15.69913916,0.0002789,69.9974,72.8088,244.0036,116.0873,1.9296e-05,2.107e-05,0.0,0 STARLINK-5868,1 56483U 23064AM  23192.07306487  .00002107  00000-0  19296-4 0  9994,2 56483  69.9974  72.8088 0002789 244.0036 116.0873 15.69913916 10007,6737.28,91.725,361.024,357.266,0.0
56483.0,STARLINK-5868,PAYLOAD,2023-07-11 20:06:13,15.6992588,0.0003675,69.9968,70.6575,262.9613,97.1164,1.2439e-05,1.283e-05,0.0,0 STARLINK-5868,1 56483U 23064AM  23192.83765812  .00001283  00000-0  12439-4 0  9995,2 56483  69.9968  70.6575 0003675 262.9613  97.1164 15.69925880 10120,6737.246,91.724,361.587,356.635,0.0
